NORAD_CAT_ID,OBJECT_NAME,OBJECT_TYPE,EPOCH,MEAN_MOTION,ECCENTRICITY,INCLINATION,RA_OF_ASC_NODE,ARG_OF_PERICENTER,MEAN_ANOMALY,BSTAR,MEAN_MOTION_DOT,MEAN_MOTION_DDOT,TLE_LINE0,TLE_LINE1,TLE_LINE2,SEMIMAJOR_AXIS,PERIOD,APOGEE,PERIGEE,DECAYED
55422.0,STARLINK-5006,PAYLOAD,2024-05-29 13:39:09,14.98329416,0.0002798,70.0002,280.9745,258.8386,101.2459,7.5456e-06,-3e-08,0.0,0 STARLINK-5006,1 55422U 23014AH  24150.56886260 -.00000003  00000-0  75456-5 0  9997,2 55422  70.0002 280.9745 0002798 258.8386 101.2459 14.98329416 74336,6950.195,96.107,574.004,570.115,0.0
55422.0,STARLINK-5006,PAYLOAD,2024-05-29 18:27:33,14.9832961,0.0002799,70.0002,280.4697,259.334,100.7504,6.4205e-06,-1.6e-07,0.0,0 STARLINK-5006,1 55422U 23014AH  24150.76914249 -.00000016  00000-0  64205-5 0  9992,2 55422  70.0002 280.4697 0002799 259.3340 100.7504 14.98329610 74368,6950.194,96.107,574.004,570.114,0.0
55422.0,STARLINK-5006,PAYLOAD,2024-05-30 12:05:02,14.98335707,0.0002991,69.9997,278.6172,266.8724,93.2093,7.7681e-05,8.34e-06,0.0,0 STARLINK-5006,1 55422U 23014AH  24151.50349635  .00000834  00000-0  77681-4 0  9994,2 55422  69.9997 278.6172 0002991 266.8724  93.2093 14.98335707 73539,6950.175,96.107,574.119,569.961,0.0
55422.0,STARLINK-5006,PAYLOAD,2024-05-30 13:41:10,14.98335565,0.0002992,69.9997,278.4489,266.6446,93.4371,7.5633e-05,8.1e-06,0.0,0 STARLINK-5006,1 55422U 23014AH  24151.57025632  .00000810  00000-0  75633-4 0  9998,2 55422  69.9997 278.4489 0002992 266.6446  93.4371 14.98335565 74486,6950.176,96.107,574.12,569.961,0.0
55422.0,STARLINK-5006,PAYLOAD,2024-05-30 18:29:33,14.9833951,0.0002923,69.9998,277.944,264.8609,95.2216,0.000119,1.328e-05,0.0,0 STARLINK-5006,1 55422U 23014AH  24151.77053189  .00001328  00000-0  11900-3 0  9999,2 55422  69.9998 277.9440 0002923 264.8609  95.2216 14.98339510 74519,6950.163,96.106,574.06,569.997,0.0
55422.0,STARLINK-5006,PAYLOAD,2024-05-31 12:07:03,14.98329989,0.0002852,70.0,276.0926,260.7165,99.3672,6.0687e-05,6.31e-06,0.0,0 STARLINK-5006,1 55422U 23014AH  24152.50489766  .00000631  00000-0  60687-4 0  9998,2 55422  70.0000 276.0926 0002852 260.7165  99.3672 14.98329989 73685,6950.193,96.107,574.04,570.076,0.0
55422.0,STARLINK-5006,PAYLOAD,2024-05-31 13:43:11,14.9832982,0.0002851,70.0,275.9243,260.5132,99.5705,5.7085e-05,5.88e-06,0.0,0 STARLINK-5006,1 55422U 23014AH  24152.57165781  .00000588  00000-0  57085-4 0  9992,2 55422  70.0000 275.9243 0002851 260.5132  99.5705 14.98329820 74635,6950.193,96.107,574.04,570.077,0.0
55422.0,STARLINK-5006,PAYLOAD,2024-05-31 18:31:35,14.98334771,0.0002972,69.9997,275.4192,268.8939,91.188,8.1857e-05,8.84e-06,0.0,0 STARLINK-5006,1 55422U 23014AH  24152.77193417  .00000884  00000-0  81857-4 0  9994,2 55422  69.9997 275.4192 0002972 268.8939  91.1880 14.98334771 74661,6950.178,96.107,574.109,569.978,0.0
55422.0,STARLINK-5006,PAYLOAD,2024-06-01 12:09:04,14.98330431,0.0003046,69.9995,273.5673,269.202,90.8791,-2.6891e-05,-4.14e-06,0.0,0 STARLINK-5006,1 55422U 23014AH  24153.50629826 -.00000414  00000-0 -26891-4 0  9992,2 55422  69.9995 273.5673 0003046 269.2020  90.8791 14.98330431 73835,6950.192,96.107,574.174,569.94,0.0
55422.0,STARLINK-5006,PAYLOAD,2024-06-01 13:45:12,14.98330284,0.0003049,69.9996,273.399,269.1695,90.9114,-2.739e-05,-4.2e-06,0.0,0 STARLINK-5006,1 55422U 23014AH  24153.57305834 -.00000420  00000-0 -27390-4 0  9991,2 55422  69.9996 273.3990 0003049 269.1695  90.9114 14.98330284 74787,6950.192,96.107,574.176,569.938,0.0
55422.0,STARLINK-5006,PAYLOAD,2024-06-02 00:58:08,14.98342044,0.0003042,69.9997,272.2207,268.3934,91.6877,-0.00020775,-2.572e-05,0.0,0 STARLINK-5006,1 55422U 23014AH  24154.04037386 -.00002572  00000-0 -20775-3 0  9997,2 55422  69.9997 272.2207 0003042 268.3934  91.6877 14.98342044 73912,6950.156,96.106,574.135,569.906,0.0
55422.0,STARLINK-5006,PAYLOAD,2024-06-02 13:47:12,14.98331184,0.0003011,69.9995,270.8741,267.5563,92.5251,9.9589e-05,1.095e-05,0.0,0 STARLINK-5006,1 55422U 23014AH  24154.57445357  .00001095  00000-0  99589-4 0  9993,2 55422  69.9995 270.8741 0003011 267.5563  92.5251 14.98331184 74934,6950.189,96.107,574.147,569.962,0.0
55422.0,STARLINK-5006,PAYLOAD,2024-06-03 01:00:08,14.98340969,0.0003064,69.9996,269.6958,267.6163,92.4645,-6.6092e-05,-8.82e-06,0.0,0 STARLINK-5006,1 55422U 23014AH  24155.04176977 -.00000882  00000-0 -66092-4 0  9993,2 55422  69.9996 269.6958 0003064 267.6163  92.4645 14.98340969 74067,6950.159,96.106,574.153,569.894,0.0
55422.0,STARLINK-5006,PAYLOAD,2024-06-03 13:49:13,14.98330774,0.0003015,69.9994,268.3492,268.1128,91.9685,8.1977e-05,8.85e-06,0.0,0 STARLINK-5006,1 55422U 23014AH  24155.57585414  .00000885  00000-0  81977-4 0  9991,2 55422  69.9994 268.3492 0003015 268.1128  91.9685 14.98330774 74147,6950.19,96.107,574.151,569.96,0.0
55422.0,STARLINK-5006,PAYLOAD,2024-06-04 13:51:14,14.98337382,0.0003018,69.9984,265.8227,268.0891,91.9922,6.3193e-05,6.61e-06,0.0,0 STARLINK-5006,1 55422U 23014AH  24156.57724990  .00000661  00000-0  63193-4 0  9998,2 55422  69.9984 265.8227 0003018 268.0891  91.9922 14.98337382 75230,6950.17,96.107,574.133,569.938,0.0
55422.0,STARLINK-5006,PAYLOAD,2024-06-05 10:40:59,14.98323648,0.0003131,69.999,263.6353,268.1153,91.9648,5.022e-05,5.06e-06,0.0,0 STARLINK-5006,1 55422U 23014AH  24157.44513781  .00000506  00000-0  50220-4 0  9994,2 55422  69.9990 263.6353 0003131 268.1153  91.9648 14.98323648 74426,6950.213,96.107,574.254,569.901,0.0
55422.0,STARLINK-5006,PAYLOAD,2024-06-05 13:53:15,14.98330627,0.0003185,69.9988,263.2992,268.7075,91.3719,3.45e-05,3.19e-06,0.0,0 STARLINK-5006,1 55422U 23014AH  24157.57865419  .00000319  00000-0  34500-4 0  9991,2 55422  69.9988 263.2992 0003185 268.7075  91.3719 14.98330627 75380,6950.191,96.107,574.27,569.842,0.0
55422.0,STARLINK-5006,PAYLOAD,2024-06-06 13:55:16,14.98328785,0.0003334,69.9989,260.7742,273.5031,86.5747,4.9162e-05,4.94e-06,0.0,0 STARLINK-5006,1 55422U 23014AH  24158.58005655  .00000494  00000-0  49162-4 0  9995,2 55422  69.9989 260.7742 0003334 273.5031  86.5747 14.98328785 75534,6950.197,96.107,574.379,569.744,0.0
55422.0,STARLINK-5006,PAYLOAD,2024-06-06 17:07:33,14.9832025,0.0003458,69.9988,260.4373,274.4525,85.6239,0.0002529,2.925e-05,0.0,0 STARLINK-5006,1 55422U 23014AH  24158.71357777  .00002925  00000-0  25290-3 0  9991,2 55422  69.9988 260.4373 0003458 274.4525  85.6239 14.98320250 74618,6950.223,96.108,574.491,569.685,0.0
55422.0,STARLINK-5006,PAYLOAD,2024-06-07 09:08:53,14.98326814,0.0002953,69.9988,258.7539,270.7394,89.3427,9.9274e-05,1.092e-05,0.0,0 STARLINK-5006,1 55422U 23014AH  24159.38117711  .00001092  00000-0  99274-4 0  9995,2 55422  69.9988 258.7539 0002953 270.7394  89.3427 14.98326814 75651,6950.203,96.107,574.12,570.015,0.0
55422.0,STARLINK-5006,PAYLOAD,2024-06-07 15:33:25,14.98332711,0.0002913,69.999,258.0808,270.1854,89.8972,0.00010415,1.15e-05,0.0,0 STARLINK-5006,1 55422U 23014AH  24159.64821344  .00001150  00000-0  10415-3 0  9992,2 55422  69.9990 258.0808 0002913 270.1854  89.8972 14.98332711 74750,6950.185,96.107,574.074,570.025,0.0
55422.0,STARLINK-5006,PAYLOAD,2024-06-07 23:34:06,14.9832321,0.0002674,70.0001,257.2401,269.8607,90.2245,5.5933e-06,-2.6e-07,0.0,0 STARLINK-5006,1 55422U 23014AH  24159.98202293 -.00000026  00000-0  55933-5 0  9993,2 55422  70.0001 257.2401 0002674 269.8607  90.2245 14.98323210 74800,6950.214,96.107,573.937,570.22,0.0
55422.0,STARLINK-5006,PAYLOAD,2024-06-08 12:23:11,14.9831872,0.0002492,70.0001,255.894,261.2436,98.8441,-1.5912e-05,-2.83e-06,0.0,0 STARLINK-5006,1 55422U 23014AH  24160.51610927 -.00000283  00000-0 -15912-4 0  9999,2 55422  70.0001 255.8940 0002492 261.2436  98.8441 14.98318720 75821,6950.228,96.108,573.825,570.361,0.0
55422.0,STARLINK-5006,PAYLOAD,2024-06-08 23:36:07,14.98328849,0.0002787,69.9998,254.7151,269.0853,90.9987,-5.7172e-05,-7.75e-06,0.0,0 STARLINK-5006,1 55422U 23014AH  24160.98342535 -.00000775  00000-0 -57172-4 0  9997,2 55422  69.9998 254.7151 0002787 269.0853  90.9987 14.98328849 74955,6950.196,96.107,573.998,570.124,0.0
55422.0,STARLINK-5006,PAYLOAD,2024-06-09 12:25:11,14.98335582,0.0003024,69.9997,253.3692,271.9153,88.166,0.00010115,1.114e-05,0.0,0 STARLINK-5006,1 55422U 23014AH  24161.51749719  .00001114  00000-0  10115-3 0  9993,2 55422  69.9997 253.3692 0003024 271.9153  88.1660 14.98335582 75038,6950.176,96.107,574.142,569.939,0.0
55422.0,STARLINK-5006,PAYLOAD,2024-06-09 15:37:27,14.983356,0.0002999,69.9998,253.0325,270.9241,89.1574,0.00010603,1.173e-05,0.0,0 STARLINK-5006,1 55422U 23014AH  24161.65101680  .00001173  00000-0  10603-3 0  9994,2 55422  69.9998 253.0325 0002999 270.9241  89.1574 14.98335600 75997,6950.176,96.107,574.125,569.956,0.0
55422.0,STARLINK-5006,PAYLOAD,2024-06-10 12:27:12,14.98332987,0.0003005,69.9992,250.8418,265.975,94.1066,0.00019332,2.215e-05,0.0,0 STARLINK-5006,1 55422U 23014AH  24162.51889583  .00002215  00000-0  19332-3 0  9991,2 55422  69.9992 250.8418 0003005 265.9750  94.1066 14.98332987 75185,6950.184,96.107,574.137,569.96,0.0
55422.0,STARLINK-5006,PAYLOAD,2024-06-10 15:39:28,14.98332708,0.0003274,69.9992,250.5057,270.8009,89.2775,0.00018774,2.148e-05,0.0,0 STARLINK-5006,1 55422U 23014AH  24162.65241578  .00002148  00000-0  18774-3 0  9996,2 55422  69.9992 250.5057 0003274 270.8009  89.2775 14.98332708 76141,6950.185,96.107,574.325,569.774,0.0
55422.0,STARLINK-5006,PAYLOAD,2024-06-11 14:05:21,14.98340244,0.0002983,69.9992,248.1496,264.4201,95.6617,3.3619e-05,3.08e-06,0.0,0 STARLINK-5006,1 55422U 23014AH  24163.58705086  .00000308  00000-0  33619-4 0  9990,2 55422  69.9992 248.1496 0002983 264.4201  95.6617 14.98340244 76285,6950.161,96.106,574.099,569.953,0.0
55422.0,STARLINK-5006,PAYLOAD,2024-06-11 15:41:29,14.9834067,0.0002979,69.9992,247.9813,264.5421,95.5398,4.9141e-05,4.94e-06,0.0,0 STARLINK-5006,1 55422U 23014AH  24163.65380982  .00000494  00000-0  49141-4 0  9995,2 55422  69.9992 247.9813 0002979 264.5421  95.5398 14.98340670 75350,6950.16,96.106,574.095,569.954,0.0
